{
  "norad_id": 51627,
  "name": "ONEWEB-0423",
  "history": [
    {
      "epoch": "2026-03-28T21:07:28.639776",
      "apogee_km": 1195.1096990149872,
      "perigee_km": 1192.3093273005607,
      "latitude_deg": 72.69626840459071,
      "longitude_deg": 147.19848863990046,
      "semi_major_axis_km": 7571.846513157774,
      "eccentricity": 0.00018492,
      "inclination_deg": 87.9186,
      "raan_deg": 21.8085,
      "arg_perigee_deg": 82.5426,
      "mean_anomaly_deg": 277.5916,
      "mean_motion_rev_day": 13.17649978
    },
    {
      "epoch": "2026-03-29T04:24:52.167168",
      "apogee_km": 1195.1045499890988,
      "perigee_km": 1192.315081622156,
      "latitude_deg": -32.88430042090648,
      "longitude_deg": 176.35796351986937,
      "semi_major_axis_km": 7571.846815805627,
      "eccentricity": 0.0001842,
      "inclination_deg": 87.9187,
      "raan_deg": 21.7482,
      "arg_perigee_deg": 82.7883,
      "mean_anomaly_deg": 277.3458,
      "mean_motion_rev_day": 13.17649899
    }
  ]
}